{"type": "FeatureCollection", "features": [ {"type": "Feature", "properties": {"norad_id": 34031, "name": "COSMOS 2251 DEB", "group": "cosmos-2251-debris", "lat": -6.62534103781942, "lon": 134.2860884746747, "alt_km": 699.550844762869, "timestamp": "2025-12-12T11:38:31.806142+00:00", "meta": {"OBJECT_NAME": "COSMOS 2251 DEB", "OBJECT_ID": "1993-036HS", "EPOCH": "2025-12-11T21:36:43.135200", "MEAN_MOTION": 14.59670256, "ECCENTRICITY": 0.0022997, "INCLINATION": 74.0124, "RA_OF_ASC_NODE": 137.3105, "ARG_OF_PERICENTER": 257.6778, "MEAN_ANOMALY": 264.6151, "EPHEMERIS_TYPE": 0, "CLASSIFICATION_TYPE": "U", "NORAD_CAT_ID": 34031, "ELEMENT_SET_NO": 999, "REV_AT_EPOCH": 88553, "BSTAR": 0.0021318, "MEAN_MOTION_DOT": 0.0001018, "MEAN_MOTION_DDOT": 0}, "tle": {"line1": "1 34031U 93036HS  25345.90049925  .00010180  00000+0  21318-2 0  9995", "line2": "2 34031  74.0124 137.3105 0022997 257.6778 264.6151 14.59670256885531"}}, "geometry": {"type": "Point", "coordinates": [134.2860884746747, -6.62534103781942]}}, {"type": "Feature", "properties": {"norad_id": 34035, "name": "COSMOS 2251 DEB", "group": "cosmos-2251-debris", "lat": 16.041952884972606, "lon": 164.90673946329235, "alt_km": 751.0615095786015, "timestamp": "2025-12-12T11:38:31.806152+00:00", "meta": {"OBJECT_NAME": "COSMOS 2251 DEB", "OBJECT_ID": "1993-036HW", "EPOCH": "2025-12-12T03:09:11.695968", "MEAN_MOTION": 14.51928627, "ECCENTRICITY": 0.0044669, "INCLINATION": 74.0661, "RA_OF_ASC_NODE": 350.2834, "ARG_OF_PERICENTER": 351.8965, "MEAN_ANOMALY": 123.1783, "EPHEMERIS_TYPE": 0, "CLASSIFICATION_TYPE": "U", "NORAD_CAT_ID": 34035, "ELEMENT_SET_NO": 999, "REV_AT_EPOCH": 87957, "BSTAR": 0.002503, "MEAN_MOTION_DOT": 0.00010215, "MEAN_MOTION_DDOT": 0}, "tle": {"line1": "1 34035U 93036HW  25346.13138537  .00010215  00000+0  25030-2 0  9997", "line2": "2 34035  74.0661 350.2834 0044669 351.8965 123.1783 14.51928627879578"}}, "geometry": {"type": "Point", "coordinates": [164.90673946329235, 16.041952884972606]}}, {"type": "Feature", "properties": {"norad_id": 34036, "name": "COSMOS 2251 DEB", "group": "cosmos-2251-debris", "lat": 22.376692755119876, "lon": 156.5570931814277, "alt_km": 590.238404652081, "timestamp": "2025-12-12T11:38:31.806162+00:00", "meta": {"OBJECT_NAME": "COSMOS 2251 DEB", "OBJECT_ID": "1993-036HX", "EPOCH": "2025-12-11T21:04:57.230688", "MEAN_MOTION": 14.94862798, "ECCENTRICITY": 0.0012668, "INCLINATION": 74.0201, "RA_OF_ASC_NODE": 151.0056, "ARG_OF_PERICENTER": 184.2754, "MEAN_ANOMALY": 175.8324, "EPHEMERIS_TYPE": 0, "CLASSIFICATION_TYPE": "U", "NORAD_CAT_ID": 34036, "ELEMENT_SET_NO": 999, "REV_AT_EPOCH": 88557, "BSTAR": 0.0047452, "MEAN_MOTION_DOT": 0.00052152, "MEAN_MOTION_DDOT": 0}, "tle": {"line1": "1 34036U 93036HX  25345.87844017  .00052152  00000+0  47452-2 0  9993", "line2": "2 34036  74.0201 151.0056 0012668 184.2754 175.8324 14.94862798885575"}}, "geometry": {"type": "Point", "coordinates": [156.5570931814277, 22.376692755119876]}}, {"type": "Feature", "properties": {"norad_id": 34037, "name": "COSMOS 2251 DEB", "group": "cosmos-2251-debris", "lat": 39.241307688049375, "lon": -142.59763890041557, "alt_km": 743.3324409865154, "timestamp": "2025-12-12T11:38:31.806172+00:00", "meta": {"OBJECT_NAME": "COSMOS 2251 DEB", "OBJECT_ID": "1993-036HY", "EPOCH": "2025-12-12T04:18:28.190016", "MEAN_MOTION": 14.34663901, "ECCENTRICITY": 0.0052008, "INCLINATION": 74.0522, "RA_OF_ASC_NODE": 51.4678, "ARG_OF_PERICENTER": 101.6562, "MEAN_ANOMALY": 259.0433, "EPHEMERIS_TYPE": 0, "CLASSIFICATION_TYPE": "U", "NORAD_CAT_ID": 34037, "ELEMENT_SET_NO": 999, "REV_AT_EPOCH": 87709, "BSTAR": 0.00075256, "MEAN_MOTION_DOT": 2.137e-05, "MEAN_MOTION_DDOT": 0}, "tle": {"line1": "1 34037U 93036HY  25346.17949294  .00002137  00000+0  75256-3 0  9993", "line2": "2 34037  74.0522  51.4678 0052008 101.6562 259.0433 14.34663901877090"}}, "geometry": {"type": "Point", "coordinates": [-142.59763890041557, 39.241307688049375]}}, {"type": "Feature", "properties": {"norad_id": 34040, "name": "COSMOS 2251 DEB", "group": "cosmos-2251-debris", "lat": 73.71526855493826, "lon": 166.21629592163666, "alt_km": 916.3322257975569, "timestamp": "2025-12-12T11:38:31.806183+00:00", "meta": {"OBJECT_NAME": "COSMOS 2251 DEB", "OBJECT_ID": "1993-036JB", "EPOCH": "2025-12-11T12:24:22.438368", "MEAN_MOTION": 13.68372476, "ECCENTRICITY": 0.03429941, "INCLINATION": 73.9559, "RA_OF_ASC_NODE": 67.8837, "ARG_OF_PERICENTER": 21.5005, "MEAN_ANOMALY": 340.0122, "EPHEMERIS_TYPE": 0, "CLASSIFICATION_TYPE": "U", "NORAD_CAT_ID": 34040, "ELEMENT_SET_NO": 999, "REV_AT_EPOCH": 83583, "BSTAR": 0.00062062903, "MEAN_MOTION_DOT": 7.78e-06, "MEAN_MOTION_DDOT": 0}, "tle": {"line1": "1 34040U 93036JB  25345.51692637  .00000778  00000+0  62063-3 0  9991", "line2": "2 34040  73.9559  67.8837 0342994  21.5005 340.0122 13.68372476835830"}}, "geometry": {"type": "Point", "coordinates": [166.21629592163666, 73.71526855493826]}}, {"type": "Feature", "properties": {"norad_id": 34045, "name": "COSMOS 2251 DEB", "group": "cosmos-2251-debris", "lat": -3.695101110110493, "lon": 132.35685504313793, "alt_km": 796.9345755375825, "timestamp": "2025-12-12T11:38:31.806193+00:00", "meta": {"OBJECT_NAME": "COSMOS 2251 DEB", "OBJECT_ID": "1993-036JG", "EPOCH": "2025-12-12T01:03:48.124800", "MEAN_MOTION": 14.34068185, "ECCENTRICITY": 0.0025631, "INCLINATION": 74.0392, "RA_OF_ASC_NODE": 312.104, "ARG_OF_PERICENTER": 35.7606, "MEAN_ANOMALY": 33.1207, "EPHEMERIS_TYPE": 0, "CLASSIFICATION_TYPE": "U", "NORAD_CAT_ID": 34045, "ELEMENT_SET_NO": 999, "REV_AT_EPOCH": 88023, "BSTAR": 0.00015582, "MEAN_MOTION_DOT": 4.11e-06, "MEAN_MOTION_DDOT": 0}, "tle": {"line1": "1 34045U 93036JG  25346.04430700  .00000411  00000+0  15582-3 0  9994", "line2": "2 34045  74.0392 312.1040 0025631  35.7606  33.1207 14.34068185880235"}}, "geometry": {"type": "Point", "coordinates": [132.35685504313793, -3.695101110110493]}}, {"type": "Feature", "properties": {"norad_id": 34046, "name": "COSMOS 2251 DEB", "group": "cosmos-2251-debris", "lat": 17.33669596321331, "lon": -174.1768254324837, "alt_km": 716.5526534418632, "timestamp": "2025-12-12T11:38:31.806215+00:00", "meta": {"OBJECT_NAME": "COSMOS 2251 DEB", "OBJECT_ID": "1993-036JH", "EPOCH": "2025-12-12T02:51:36.008064", "MEAN_MOTION": 14.46464953, "ECCENTRICITY": 0.007454, "INCLINATION": 74.04, "RA_OF_ASC_NODE": 11.6314, "ARG_OF_PERICENTER": 95.2688, "MEAN_ANOMALY": 321.0882, "EPHEMERIS_TYPE": 0, "CLASSIFICATION_TYPE": "U", "NORAD_CAT_ID": 34046, "ELEMENT_SET_NO": 999, "REV_AT_EPOCH": 87817, "BSTAR": 0.0018075, "MEAN_MOTION_DOT": 6.709e-05, "MEAN_MOTION_DDOT": 0}, "tle": {"line1": "1 34046U 93036JH  25346.11916676  .00006709  00000+0  18075-2 0  9999", "line2": "2 34046  74.0400  11.6314 0074540  95.2688 321.0882 14.46464953878179"}}, "geometry": {"type": "Point", "coordinates": [-174.1768254324837, 17.33669596321331]}}, {"type": "Feature", "properties": {"norad_id": 34050, "name": "COSMOS 2251 DEB", "group": "cosmos-2251-debris", "lat": 72.85515662897603, "lon": 78.10712487742691, "alt_km": 745.1008947993605, "timestamp": "2025-12-12T11:38:31.806228+00:00", "meta": {"OBJECT_NAME": "COSMOS 2251 DEB", "OBJECT_ID": "1993-036JM", "EPOCH": "2025-12-12T02:55:07.796064", "MEAN_MOTION": 13.96180122, "ECCENTRICITY": 0.0214549, "INCLINATION": 74.0883, "RA_OF_ASC_NODE": 11.1127, "ARG_OF_PERICENTER": 75.5868, "MEAN_ANOMALY": 341.4221, "EPHEMERIS_TYPE": 0, "CLASSIFICATION_TYPE": "U", "NORAD_CAT_ID": 34050, "ELEMENT_SET_NO": 999, "REV_AT_EPOCH": 85423, "BSTAR": 0.00079559, "MEAN_MOTION_DOT": 1.305e-05, "MEAN_MOTION_DDOT": 0}, "tle": {"line1": "1 34050U 93036JM  25346.12161801  .00001305  00000+0  79559-3 0  9999", "line2": "2 34050  74.0883  11.1127 0214549  75.5868 341.4221 13.96180122854233"}}, "geometry": {"type": "Point", "coordinates": [78.10712487742691, 72.85515662897603]}}, {"type": "Feature", "properties": {"norad_id": 34053, "name": "COSMOS 2251 DEB", "group": "cosmos-2251-debris", "lat": 69.00422313785089, "lon": 13.531548657918826, "alt_km": 961.1341518719, "timestamp": "2025-12-12T11:38:31.806239+00:00", "meta": {"OBJECT_NAME": "COSMOS 2251 DEB", "OBJECT_ID": "1993-036JQ", "EPOCH": "2025-12-11T17:22:13.842048", "MEAN_MOTION": 13.49158885, "ECCENTRICITY": 0.04221594, "INCLINATION": 73.8442, "RA_OF_ASC_NODE": 243.8084, "ARG_OF_PERICENTER": 32.5258, "MEAN_ANOMALY": 330.1116, "EPHEMERIS_TYPE": 0, "CLASSIFICATION_TYPE": "U", "NORAD_CAT_ID": 34053, "ELEMENT_SET_NO": 999, "REV_AT_EPOCH": 82670, "BSTAR": 0.0010868071, "MEAN_MOTION_DOT": 1.163e-05, "MEAN_MOTION_DDOT": 0}, "tle": {"line1": "1 34053U 93036JQ  25345.72377132  .00001163  00000+0  10868-2 0  9992", "line2": "2 34053  73.8442 243.8084 0422159  32.5258 330.1116 13.49158885826702"}}, "geometry": {"type": "Point", "coordinates": [13.531548657918826, 69.00422313785089]}}, {"type": "Feature", "properties": {"norad_id": 34056, "name": "COSMOS 2251 DEB", "group": "cosmos-2251-debris", "lat": -26.87583722589019, "lon": -94.83875879918482, "alt_km": 817.1168933574718, "timestamp": "2025-12-12T11:38:31.806250+00:00", "meta": {"OBJECT_NAME": "COSMOS 2251 DEB", "OBJECT_ID": "1993-036JT", "EPOCH": "2025-12-11T16:47:02.213088", "MEAN_MOTION": 14.20549915, "ECCENTRICITY": 0.01241523, "INCLINATION": 74.0592, "RA_OF_ASC_NODE": 78.2372, "ARG_OF_PERICENTER": 126.3528, "MEAN_ANOMALY": 23.4064, "EPHEMERIS_TYPE": 0, "CLASSIFICATION_TYPE": "U", "NORAD_CAT_ID": 34056, "ELEMENT_SET_NO": 999, "REV_AT_EPOCH": 86396, "BSTAR": 0.0016154387, "MEAN_MOTION_DOT": 3.73e-05, "MEAN_MOTION_DDOT": 0}, "tle": {"line1": "1 34056U 93036JT  25345.69933117  .00003730  00000+0  16154-2 0  9998", "line2": "2 34056  74.0592  78.2372 0124152 126.3528  23.4064 14.20549915863969"}}, "geometry": {"type": "Point", "coordinates": [-94.83875879918482, -26.87583722589019]}}]}